OBJECT_NAME,OBJECT_ID,EPOCH,MEAN_MOTION,ECCENTRICITY,INCLINATION,RA_OF_ASC_NODE,ARG_OF_PERICENTER,MEAN_ANOMALY,EPHEMERIS_TYPE,CLASSIFICATION_TYPE,NORAD_CAT_ID,ELEMENT_SET_NO,REV_AT_EPOCH,BSTAR,MEAN_MOTION_DOT,MEAN_MOTION_DDOT
ONEWEB-0236,2021-045AG,2026-06-24T04:09:17.069472,13.15549122,.00021719,87.8997,257.8145,100.0382,260.0993,0,U,48797,999,24517,-.23071532E-3,-.74E-6,0
ONEWEB-0248,2021-045AH,2026-06-25T04:11:19.519008,13.15547849,.000198,87.9004,257.5983,114.8407,245.2929,0,U,48798,999,24546,-.38527E-3,-.132E-5,0
ONEWEB-0225,2021-045AJ,2026-06-24T04:59:28.810176,13.15549505,.00016666,87.9002,257.7999,114.8344,245.2960,0,U,48799,999,24534,.36027465E-3,.148E-5,0
ONEWEB-0215,2021-045AK,2026-06-25T03:59:54.735936,13.15547230,.0001769,87.9009,257.5914,120.0902,240.0404,0,U,48800,999,24534,-.25364E-3,-.83E-6,0
ONEWEB-0216,2021-045AL,2026-06-25T04:13:36.558048,13.15549080,.0002015,87.9007,257.6045,98.2199,261.9160,0,U,48801,999,24535,-.29627E-3,-.99E-6,0
ONEWEB-0239,2021-045AM,2026-06-25T04:20:27.002976,13.15549167,.0002029,87.8996,257.6088,123.1781,236.9544,0,U,48802,999,24539,-.31166E-3,-.105E-5,0
ONEWEB-0249,2021-060A,2026-06-25T04:25:45.882912,13.16595254,.0002128,87.9089,227.1901,100.2373,259.8998,0,U,48967,999,24066,-.82122E-6,.13E-6,0
ONEWEB-0250,2021-060B,2026-06-25T03:44:54.168000,13.25834242,.0003032,87.9091,224.9261,106.2640,253.8830,0,U,48968,999,24127,.13228E-3,.71E-6,0
ONEWEB-0252,2021-060D,2026-06-25T03:20:48.410880,13.16594304,.0001838,87.9095,227.1913,93.0365,267.0977,0,U,48970,999,24070,.18946E-3,.85E-6,0
ONEWEB-0253,2021-060E,2026-06-25T03:04:50.973600,13.16593754,.0002127,87.9093,227.1989,99.7740,260.3631,0,U,48971,999,24063,.12356E-3,.6E-6,0
ONEWEB-0254,2021-060F,2026-06-25T03:18:31.298400,13.16595383,.0002067,87.9096,227.1947,106.1497,253.9861,0,U,48972,999,24063,.26423E-3,.114E-5,0
ONEWEB-0255,2021-060G,2026-06-25T04:13:14.316960,13.16595028,.0001978,87.9090,227.1937,101.7948,258.3404,0,U,48973,999,24071,-.20996E-3,-.67E-6,0
ONEWEB-0256,2021-060H,2026-06-25T03:01:25.410720,13.16593581,.0001996,87.9086,227.2073,92.9756,267.1604,0,U,48974,999,24067,.28674E-3,.122E-5,0
ONEWEB-0257,2021-060J,2026-06-25T03:48:09.229824,13.16595078,.0001906,87.9093,227.1885,98.2489,261.8859,0,U,48975,999,24063,.24655E-4,.22E-6,0
ONEWEB-0258,2021-060K,2026-06-25T03:50:26.319840,13.16594995,.0002117,87.9090,227.1998,97.9190,262.2181,0,U,48976,999,24064,-.10601E-3,-.28E-6,0
ONEWEB-0259,2021-060L,2026-06-25T03:41:19.140000,13.16595103,.0002093,87.9092,227.2003,101.3906,258.7460,0,U,48977,999,24067,-.77253E-4,-.17E-6,0
ONEWEB-0260,2021-060M,2026-06-25T03:28:46.560576,13.16594445,.0001827,87.9089,227.2035,86.5004,273.6336,0,U,48978,999,24065,.18921E-3,.85E-6,0
ONEWEB-0261,2021-060N,2026-06-25T04:34:53.175072,13.16592596,.0001763,87.9086,227.1945,102.3817,257.7512,0,U,48979,999,24071,.29743E-4,.24E-6,0
ONEWEB-0262,2021-060P,2026-06-25T04:06:23.713920,13.16595515,.0002163,87.9092,227.1849,103.9486,256.1885,0,U,48980,999,24067,-.21252E-3,-.68E-6,0
ONEWEB-0263,2021-060Q,2026-06-25T03:02:33.354816,13.16595245,.0001845,87.9092,227.2051,105.6112,254.5223,0,U,48981,999,24063,.33284E-3,.14E-5,0
ONEWEB-0264,2021-060R,2026-06-24T20:38:23.514432,13.16595836,.0001834,87.9091,227.2609,95.5455,264.5885,0,U,48982,999,24060,-.74769E-4,-.16E-6,0
ONEWEB-0266,2021-060T,2026-06-25T04:26:55.369248,13.16594029,.0002131,87.9092,227.1870,96.4668,263.6705,0,U,48984,999,24063,-.12823E-3,-.36E-6,0
ONEWEB-0267,2021-060U,2026-06-25T02:53:26.493792,13.16595176,.0001833,87.9093,227.1966,99.8861,260.2477,0,U,48985,999,24063,.12395E-3,.6E-6,0
ONEWEB-0268,2021-060V,2026-06-25T03:57:15.404832,13.16592678,.0002004,87.9092,227.1974,93.1648,266.9712,0,U,48986,999,24090,.57406E-4,.35E-6,0
ONEWEB-0269,2021-060W,2026-06-25T03:29:55.055904,13.16594997,.000212,87.9085,227.2027,91.3108,268.8266,0,U,48987,999,24067,.6738E-4,.39E-6,0
ONEWEB-0270,2021-060X,2026-06-25T03:54:59.965920,13.16595245,.0001991,87.9093,227.1995,107.3219,252.8130,0,U,48988,999,24071,-.16208E-3,-.49E-6,0
ONEWEB-0271,2021-060Y,2026-06-25T03:36:45.710784,13.16594637,.00019,87.9091,227.1915,102.4004,257.7340,0,U,48989,999,24071,-.63695E-4,-.12E-6,0
ONEWEB-0272,2021-060Z,2026-06-25T04:08:41.000064,13.16592594,.0001785,87.9085,227.1993,92.5375,267.5960,0,U,48990,999,24066,-.99643E-5,.9E-7,0
ONEWEB-0273,2021-060AA,2026-06-25T04:40:35.694912,13.16594765,.0001999,87.9091,227.1943,100.9582,259.1774,0,U,48991,999,24064,.24239E-5,.14E-6,0
ONEWEB-0274,2021-060AB,2026-06-25T03:27:38.225088,13.16594351,.0001842,87.9085,227.2058,89.9702,270.1640,0,U,48992,999,24067,.17339E-3,.79E-6,0
