ONEWEB-0236             
1 48797U 21045AG  26175.17311423 -.00000074  00000+0 -23072-3 0  9999
2 48797  87.8997 257.8145 0002171 100.0382 260.0993 13.15549122245173
ONEWEB-0248             
1 48798U 21045AH  26176.17453147 -.00000132  00000+0 -38527-3 0  9997
2 48798  87.9004 257.5983 0001980 114.8407 245.2929 13.15547849245469
ONEWEB-0225             
1 48799U 21045AJ  26175.20797234  .00000148  00000+0  36027-3 0  9997
2 48799  87.9002 257.7999 0001666 114.8344 245.2960 13.15549505245341
ONEWEB-0215             
1 48800U 21045AK  26176.16660574 -.00000083  00000+0 -25364-3 0  9994
2 48800  87.9009 257.5914 0001769 120.0902 240.0404 13.15547230245348
ONEWEB-0216             
1 48801U 21045AL  26176.17611757 -.00000099  00000+0 -29627-3 0  9998
2 48801  87.9007 257.6045 0002015  98.2199 261.9160 13.15549080245359
ONEWEB-0239             
1 48802U 21045AM  26176.18086809 -.00000105  00000+0 -31166-3 0  9993
2 48802  87.8996 257.6088 0002029 123.1781 236.9544 13.15549167245391
ONEWEB-0249             
1 48967U 21060A   26176.18455883  .00000013  00000+0 -82122-6 0  9992
2 48967  87.9089 227.1901 0002128 100.2373 259.8998 13.16595254240667
ONEWEB-0250             
1 48968U 21060B   26176.15618250  .00000071  00000+0  13228-3 0  9990
2 48968  87.9091 224.9261 0003032 106.2640 253.8830 13.25834242241273
ONEWEB-0252             
1 48970U 21060D   26176.13944920  .00000085  00000+0  18946-3 0  9994
2 48970  87.9095 227.1913 0001838  93.0365 267.0977 13.16594304240706
ONEWEB-0253             
1 48971U 21060E   26176.12836775  .00000060  00000+0  12356-3 0  9994
2 48971  87.9093 227.1989 0002127  99.7740 260.3631 13.16593754240633
ONEWEB-0254             
1 48972U 21060F   26176.13786225  .00000114  00000+0  26423-3 0  9990
2 48972  87.9096 227.1947 0002067 106.1497 253.9861 13.16595383240639
ONEWEB-0255             
1 48973U 21060G   26176.17586015 -.00000067  00000+0 -20996-3 0  9998
2 48973  87.9090 227.1937 0001978 101.7948 258.3404 13.16595028240712
ONEWEB-0256             
1 48974U 21060H   26176.12598855  .00000122  00000+0  28674-3 0  9990
2 48974  87.9086 227.2073 0001996  92.9756 267.1604 13.16593581240675
ONEWEB-0257             
1 48975U 21060J   26176.15844016  .00000022  00000+0  24655-4 0  9992
2 48975  87.9093 227.1885 0001906  98.2489 261.8859 13.16595078240639
ONEWEB-0258             
1 48976U 21060K   26176.16002685 -.00000028  00000+0 -10601-3 0  9995
2 48976  87.9090 227.1998 0002117  97.9190 262.2181 13.16594995240643
ONEWEB-0259             
1 48977U 21060L   26176.15369375 -.00000017  00000+0 -77253-4 0  9992
2 48977  87.9092 227.2003 0002093 101.3906 258.7460 13.16595103240677
ONEWEB-0260             
1 48978U 21060M   26176.14498334  .00000085  00000+0  18921-3 0  9999
2 48978  87.9089 227.2035 0001827  86.5004 273.6336 13.16594445240650
ONEWEB-0261             
1 48979U 21060N   26176.19089323  .00000024  00000+0  29743-4 0  9997
2 48979  87.9086 227.1945 0001763 102.3817 257.7512 13.16592596240716
ONEWEB-0262             
1 48980U 21060P   26176.17110780 -.00000068  00000+0 -21252-3 0  9995
2 48980  87.9092 227.1849 0002163 103.9486 256.1885 13.16595515240677
ONEWEB-0263             
1 48981U 21060Q   26176.12677494  .00000140  00000+0  33284-3 0  9998
2 48981  87.9092 227.2051 0001845 105.6112 254.5223 13.16595245240639
ONEWEB-0264             
1 48982U 21060R   26175.85999438 -.00000016  00000+0 -74769-4 0  9991
2 48982  87.9091 227.2609 0001834  95.5455 264.5885 13.16595836240601
ONEWEB-0266             
1 48984U 21060T   26176.18536307 -.00000036  00000+0 -12823-3 0  9996
2 48984  87.9092 227.1870 0002131  96.4668 263.6705 13.16594029240637
ONEWEB-0267             
1 48985U 21060U   26176.12044553  .00000060  00000+0  12395-3 0  9997
2 48985  87.9093 227.1966 0001833  99.8861 260.2477 13.16595176240638
ONEWEB-0268             
1 48986U 21060V   26176.16476163  .00000035  00000+0  57406-4 0  9993
2 48986  87.9092 227.1974 0002004  93.1648 266.9712 13.16592678240907
ONEWEB-0269             
1 48987U 21060W   26176.14577611  .00000039  00000+0  67380-4 0  9998
2 48987  87.9085 227.2027 0002120  91.3108 268.8266 13.16594997240675
ONEWEB-0270             
1 48988U 21060X   26176.16319405 -.00000049  00000+0 -16208-3 0  9991
2 48988  87.9093 227.1995 0001991 107.3219 252.8130 13.16595245240719
ONEWEB-0271             
1 48989U 21060Y   26176.15052906 -.00000012  00000+0 -63695-4 0  9994
2 48989  87.9091 227.1915 0001900 102.4004 257.7340 13.16594637240719
ONEWEB-0272             
1 48990U 21060Z   26176.17269676  .00000009  00000+0 -99643-5 0  9990
2 48990  87.9085 227.1993 0001785  92.5375 267.5960 13.16592594240662
ONEWEB-0273             
1 48991U 21060AA  26176.19485758  .00000014  00000+0  24239-5 0  9998
2 48991  87.9091 227.1943 0001999 100.9582 259.1774 13.16594765240646
ONEWEB-0274             
1 48992U 21060AB  26176.14419242  .00000079  00000+0  17339-3 0  9991
2 48992  87.9085 227.2058 0001842  89.9702 270.1640 13.16594351240674
